[{"OBJECT_NAME":"STARLINK-2396","OBJECT_ID":"2021-018AE","EPOCH":"2026-03-09T17:12:29.501568","MEAN_MOTION":15.30191012,"ECCENTRICITY":0.00011921,"INCLINATION":53.1602,"RA_OF_ASC_NODE":242.5663,"ARG_OF_PERICENTER":95.5807,"MEAN_ANOMALY":264.5329,"EPHEMERIS_TYPE":0,"CLASSIFICATION_TYPE":"U","NORAD_CAT_ID":47815,"ELEMENT_SET_NO":999,"REV_AT_EPOCH":27672,"BSTAR":-7.363979e-5,"MEAN_MOTION_DOT":-2.539e-5,"MEAN_MOTION_DDOT":0},{"OBJECT_NAME":"CSTP 1.2 (STC 1.2)","OBJECT_ID":"2023-091W","EPOCH":"2026-03-09T23:12:27.821952","MEAN_MOTION":15.2718076,"ECCENTRICITY":0.00204388,"INCLINATION":97.5258,"RA_OF_ASC_NODE":134.3262,"ARG_OF_PERICENTER":84.9592,"MEAN_ANOMALY":275.3979,"EPHEMERIS_TYPE":0,"CLASSIFICATION_TYPE":"U","NORAD_CAT_ID":57186,"ELEMENT_SET_NO":999,"REV_AT_EPOCH":14930,"BSTAR":0.00043035718,"MEAN_MOTION_DOT":0.00011466,"MEAN_MOTION_DDOT":0}]
